IRIDIUM 126             
1 42809U 17039G   24226.58012255  .00000827  00000+0  28817-3 0  9992
2 42809  86.3932 274.7049 0002398  93.2353 266.9117 14.34221507373549
IRIDIUM 121             
1 42812U 17039K   24226.59915152  .00000258  00000+0  85125-4 0  9999
2 42812  86.3934 274.7199 0002234  89.1657 270.9795 14.34219500373425
IRIDIUM 133             
1 42955U 17061A   24226.46303465  .00000748  00000+0  25994-3 0  9997
2 42955  86.3979 306.3947 0002439  94.4820 265.6654 14.34221914358355
IRIDIUM 100             
1 42956U 17061B   24225.75900762  .00001282  00000+0  45046-3 0  9996
2 42956  86.3981 306.6236 0002257  93.1389 267.0065 14.34224543358259
IRIDIUM 122             
1 42957U 17061C   24226.49474863  .00000184  00000+0  58533-4 0  9993
2 42957  86.3983 306.3147 0002273  92.5536 267.5920 14.34219958358366
IRIDIUM 129             
1 42958U 17061D   24226.52011947  .00000013  00000+0 -24465-5 0  9998
2 42958  86.3982 306.3637 0002473  93.7549 266.3930 14.34218177358381
